1 43466U 98067NP  19146.87410680 +.00010379 +00000-0 +10726-3 0  9997
2 43466 051.6373 090.1788 0002061 063.5096 296.6110 15.65403225059340